IRIDIUM 150             
1 43257U 18030J   24282.67350455  .00001465  00000+0  51605-3 0  9991
2 43257  86.4044 188.1336 0002380  87.4393 272.7075 14.34222097341794
IRIDIUM 143             
1 43258U 18030K   24282.65448080  .00002515  00000+0  89048-3 0  9991
2 43258  86.4042 188.2101 0002541  86.3087 273.8399 14.34224318341723
IRIDIUM 161             
1 43478U 18047C   24282.88721664  .00000391  00000+0  11026-3 0  9991
2 43478  86.4531 346.0378 0002045  96.4786 263.6648 14.43273871336240
IRIDIUM 162             
1 43482U 18047G   24282.74219607  .00002675  00000+0  78890-3 0  9999
2 43482  86.4530 345.9974 0001767  97.7738 262.3664 14.43293962336219
IRIDIUM 160             
1 43569U 18061A   24282.79502583  .00001015  00000+0  35516-3 0  9999
2 43569  86.3946 314.3848 0001984  88.2141 271.9282 14.34220894325022
